API VERSION: 1.2
API SOURCE: NASA/JPL Horizons API



*******************************************************************************
Ephemeris / API_USER Fri Apr  3 11:25:22 2026 Pasadena, USA      / Horizons
*******************************************************************************
Target body name: Jupiter (599)                   {source: jup365_merged}
Center body name: Sun (10)                        {source: jup365_merged}
Center-site name: BODY CENTER
*******************************************************************************
Start time      : A.D. 2034-Jun-30 20:24:00.0000 TDB
Stop  time      : A.D. 2034-Jul-02 20:24:00.0000 TDB
Step-size       : 60 minutes
*******************************************************************************
Center geodetic : 0.0, 0.0, 0.0                   {E-lon(deg),Lat(deg),Alt(km)}
Center cylindric: 0.0, 0.0, 0.0                   {E-lon(deg),Dxy(km),Dz(km)}
Center radii    : 695700.0, 695700.0, 695700.0 km {Equator_a, b, pole_c}
Output units    : AU-D
Calendar mode   : Mixed Julian/Gregorian
Output type     : GEOMETRIC cartesian states
Output format   : 3 (position, velocity, LT, range, range-rate)
Reference frame : Ecliptic of J2000.0
*******************************************************************************
            JDTDB,            Calendar Date (TDB),                      X,                      Y,                      Z,                     VX,                     VY,                     VZ,                     LT,                     RG,                     RR,
**************************************************************************************************************************************************************************************************************************************************************************
$$SOE
2464144.350000000, A.D. 2034-Jun-30 20:24:00.0000,  4.958598119900986E+00, -7.908116307275007E-03, -1.109005546724624E-01, -7.902004274007344E-05,  7.905740840349227E-03, -3.110403188886106E-05,  2.864567243598077E-02,  4.959844431634503E+00, -9.090984712366522E-05,
2464144.391666667, A.D. 2034-Jun-30 21:24:00.0000,  4.958594816926713E+00, -7.578712031413211E-03, -1.109018504981965E-01, -7.952104301297800E-05,  7.905664741530097E-03, -3.109556600449878E-05,  2.864565056153340E-02,  4.959840644191347E+00, -9.088574910757431E-05,
2464144.433333333, A.D. 2034-Jun-30 22:24:00.0000,  4.958591493284030E+00, -7.249310874134101E-03, -1.109031459662181E-01, -8.001221171490087E-05,  7.905591378846819E-03, -3.108685462005438E-05,  2.864562869407528E-02,  4.959836857958344E+00, -9.085184550352590E-05,
2464144.475000000, A.D. 2034-Jun-30 23:24:00.0000,  4.958588149370834E+00, -6.919912692656125E-03, -1.109044410654310E-01, -8.049413741080815E-05,  7.905522135617866E-03, -3.107785638030649E-05,  2.864560683589798E-02,  4.959833073332264E+00, -9.080872680124866E-05,
2464144.516666667, A.D. 2034-Jul-01 00:24:00.0000,  4.958584785557021E+00, -6.590517286274629E-03, -1.109057357830495E-01, -8.096762369487455E-05,  7.905458353020764E-03, -3.106853406353346E-05,  2.864558498913096E-02,  4.959829290681812E+00, -9.075719785825983E-05,
2464144.558333333, A.D. 2034-Jul-01 01:24:00.0000,  4.958581402173245E+00, -6.261124409335501E-03, -1.109070301052301E-01, -8.143362628736236E-05,  7.905400882987617E-03, -3.105887185159119E-05,  2.864556315567689E-02,  4.959825510336429E+00, -9.069821409666991E-05,
2464144.600000000, A.D. 2034-Jul-01 02:24:00.0000,  4.958577999510292E+00, -5.931733777278790E-03, -1.109083240173468E-01, -8.189323602281004E-05,  7.905350753619769E-03, -3.104884831469574E-05,  2.864554133720831E-02,  4.959821732585702E+00, -9.063286606760582E-05,
2464144.641666667, A.D. 2034-Jul-01 03:24:00.0000,  4.958574577807871E+00, -5.602345066649813E-03, -1.109096175040829E-01, -8.234773832079190E-05,  7.905308768427976E-03, -3.103845260670097E-05,  2.864551953510291E-02,  4.959817957668170E+00, -9.056243803376368E-05,
2464144.683333333, A.D. 2034-Jul-01 04:24:00.0000,  4.958571137251192E+00, -5.272957925377018E-03, -1.109109105498728E-01, -8.279846784196974E-05,  7.905275502616875E-03, -3.102768341433504E-05,  2.864549775042397E-02,  4.959814185767937E+00, -9.048826277236800E-05,
2464144.725000000, A.D. 2034-Jul-01 05:24:00.0000,  4.958567677968634E+00, -4.943571981842680E-03, -1.109122031392777E-01, -8.324681688657242E-05,  7.905251320209972E-03, -3.101654803973713E-05,  2.864547598390709E-02,  4.959810417012367E+00, -9.041173009931313E-05,
2464144.766666667, A.D. 2034-Jul-01 06:24:00.0000,  4.958564200029589E+00, -4.614186853639477E-03, -1.109134952573355E-01, -8.369422056111623E-05,  7.905236374455483E-03, -3.100506201247310E-05,  2.864545423594786E-02,  4.959806651469954E+00, -9.033427213264359E-05,
2464144.808333333, A.D. 2034-Jul-01 07:24:00.0000,  4.958560703443237E+00, -4.284802156447888E-03, -1.109147868898980E-01, -8.414212875295930E-05,  7.905230603082024E-03, -3.099324882784592E-05,  2.864543250659484E-02,  4.959802889149108E+00, -9.025733535991833E-05,
2464144.850000000, A.D. 2034-Jul-01 08:24:00.0000,  4.958557188158631E+00, -3.955417513095149E-03, -1.109160780239560E-01, -8.459197158336939E-05,  7.905233725157069E-03, -3.098113958638263E-05,  2.864541079555024E-02,  4.959799129998265E+00, -9.018234619137606E-05,
2464144.891666667, A.D. 2034-Jul-01 09:24:00.0000,  4.958553654066281E+00, -3.626032562645850E-03, -1.109173686479452E-01, -8.504512268909468E-05,  7.905245243071365E-03, -3.096877242786621E-05,  2.864538910217903E-02,  4.959795373907476E+00, -9.011067435178123E-05,
2464144.933333333, A.D. 2034-Jul-01 10:24:00.0000,  4.958550101001274E+00, -3.296646969275897E-03, -1.109186587520234E-01, -8.550286313226005E-05,  7.905264451090840E-03, -3.095619172881675E-05,  2.864536742552705E-02,  4.959791620711532E+00, -9.004359690895230E-05,
2464144.975000000, A.D. 2034-Jul-01 11:24:00.0000,  4.958546528747834E+00, -2.967260430648486E-03, -1.109199483283103E-01, -8.596634773767142E-05,  7.905290450643030E-03, -3.094344707732281E-05,  2.864534576434737E-02,  4.959787870194532E+00, -8.998226473389786E-05,
2464145.016666667, A.D. 2034-Jul-01 12:24:00.0000,  4.958542937045229E+00, -2.637872685522011E-03, -1.109212373710792E-01, -8.643657503263313E-05,  7.905322171777855E-03, -3.093059206354925E-05,  2.864532411713428E-02,  4.959784122095774E+00, -8.992767256266192E-05,
2464145.058333333, A.D. 2034-Jul-01 13:24:00.0000,  4.958539325594831E+00, -2.308483520350841E-03, -1.109225258768967E-01, -8.691436158549817E-05,  7.905358399870333E-03, -3.091768293530883E-05,  2.864530248216418E-02,  4.959780376116821E+00, -8.988063345111387E-05,
2464145.100000000, A.D. 2034-Jul-01 14:24:00.0000,  4.958535694068146E+00, -1.979092774683006E-03, -1.109238138447039E-01, -8.740032130796585E-05,  7.905397806476552E-03, -3.090477717078063E-05,  2.864528085754166E-02,  4.959776631929500E+00, -8.984175818321332E-05,
2464145.141666667, A.D. 2034-Jul-01 15:24:00.0000,  4.958532042115601E+00, -1.649700345205429E-03, -1.109251012758369E-01, -8.789485013344631E-05,  7.905438983219555E-03, -3.089193201873765E-05,  2.864525924125038E-02,  4.959772889184685E+00, -8.981144004129992E-05,
2464145.183333333, A.D. 2034-Jul-01 16:24:00.0000,  4.958528369375841E+00, -1.320306188332896E-03, -1.109263881739873E-01, -8.839811636328105E-05,  7.905480477606539E-03, -3.087920305257887E-05,  2.864523763120644E-02,  4.959769147521566E+00, -8.978984522722578E-05,
2464145.225000000, A.D. 2034-Jul-01 17:24:00.0000,  4.958524675485321E+00, -9.909103212832448E-04, -1.109276745451029E-01, -8.891005685596015E-05,  7.905520829727184E-03, -3.086664277959801E-05,  2.864521602531377E-02,  4.959765406577215E+00, -8.977690910730180E-05,
2464145.266666667, A.D. 2034-Jul-01 18:24:00.0000,  4.958520960087921E+00, -6.615128216219543E-04, -1.109289603972331E-01, -8.943037910730473E-05,  7.905558608836682E-03, -3.085429934202031E-05,  2.864519442151946E-02,  4.959761665996186E+00, -8.977233832762879E-05,
2464145.308333333, A.D. 2034-Jul-01 19:24:00.0000,  4.958517222844359E+00, -3.321138253017490E-04, -1.109302457403211E-01, -8.995856912770270E-05,  7.905592448880677E-03, -3.084221534159907E-05,  2.864517281786796E-02,  4.959757925439883E+00, -8.977561870524413E-05,
2464145.350000000, A.D. 2034-Jul-01 20:24:00.0000,  4.958513463441159E+00, -2.713523259211705E-06, -1.109315305859521E-01, -9.049390486883663E-05,  7.905621082074599E-03, -3.083042681501683E-05,  2.864515121255275E-02,  4.959754184595518E+00, -8.978602864756361E-05,
2464145.391666667, A.D. 2034-Jul-01 21:24:00.0000,  4.958509681598956E+00,  3.266878433324717E-04, -1.109328149470608E-01, -9.103547479433708E-05,  7.905643369712846E-03, -3.081896238289083E-05,  2.864512960396412E-02,  4.959750443184376E+00, -8.980265769525773E-05,
2464145.433333333, A.D. 2034-Jul-01 22:24:00.0000,  4.958505877079913E+00,  6.560899890238931E-04, -1.109340988376080E-01, -9.158220103616655E-05,  7.905658329460061E-03, -3.080784259046190E-05,  2.864510799073187E-02,  4.959746700969217E+00, -8.982442963169484E-05,
2464145.475000000, A.D. 2034-Jul-01 23:24:00.0000,  4.958502049694109E+00,  9.854925911020262E-04, -1.109353822722343E-01, -9.213286644156301E-05,  7.905665158473345E-03, -3.079707945309333E-05,  2.864508637176208E-02,  4.959742957760635E+00, -8.985012946567795E-05,
2464145.516666667, A.D. 2034-Jul-02 00:24:00.0000,  4.958498199304716E+00,  1.314895297469919E-03, -1.109366652658984E-01, -9.268614470352934E-05,  7.905663251823215E-03, -3.078667621432583E-05,  2.864506474626694E-02,  4.959739213422221E+00, -8.987843348286075E-05,
2464145.558333333, A.D. 2034-Jul-02 01:24:00.0000,  4.958494325831895E+00,  1.644297735188980E-03, -1.109379478335109E-01, -9.324063268881397E-05,  7.905652215822343E-03, -3.077662731838974E-05,  2.864504311378704E-02,  4.959735467874435E+00, -8.990794148260447E-05,
